{
    "links": {
        "self": "http://www.neowsapp.com/rest/v1/neo/3620869?api_key=iIulBulltgU6a56xZRHN4H3l9WmuAYTsLGpBGhQ2"
    },
    "id": "3620869",
    "neo_reference_id": "3620869",
    "name": "(2012 XG133)",
    "designation": "2012 XG133",
    "nasa_jpl_url": "http://ssd.jpl.nasa.gov/sbdb.cgi?sstr=3620869",
    "absolute_magnitude_h": 24.0,
    "estimated_diameter": {
        "kilometers": {
            "estimated_diameter_min": 0.0421264611,
            "estimated_diameter_max": 0.0941976306
        },
        "meters": {
            "estimated_diameter_min": 42.1264610556,
            "estimated_diameter_max": 94.1976305719
        },
        "miles": {
            "estimated_diameter_min": 0.0261761612,
            "estimated_diameter_max": 0.0585316759
        },
        "feet": {
            "estimated_diameter_min": 138.2101784897,
            "estimated_diameter_max": 309.0473542854
        }
    },
    "is_potentially_hazardous_asteroid": false,
    "close_approach_data": [
        {
            "close_approach_date": "2012-11-14",
            "close_approach_date_full": "2012-Nov-14 09:33",
            "epoch_date_close_approach": 1352885580000,
            "relative_velocity": {
                "kilometers_per_second": "6.3576723063",
                "kilometers_per_hour": "22887.620302524",
                "miles_per_hour": "14221.4771818655"
            },
            "miss_distance": {
                "astronomical": "0.1116470216",
                "lunar": "43.4306914024",
                "kilometers": "16702156.623203992",
                "miles": "10378238.8803274096"
            },
            "orbiting_body": "Earth"
        }
    ],
    "orbital_data": {
        "orbit_id": "5",
        "orbit_determination_date": "2017-04-06 08:47:36",
        "first_observation_date": "2012-12-13",
        "last_observation_date": "2012-12-16",
        "data_arc_in_days": 3,
        "observations_used": 20,
        "orbit_uncertainty": "9",
        "minimum_orbit_intersection": ".1107",
        "jupiter_tisserand_invariant": "3.004",
        "epoch_osculation": "2456275.5",
        "eccentricity": ".614842217435756",
        "semi_major_axis": "2.821282480521775",
        "inclination": "3.275812980798591",
        "ascending_node_longitude": "115.3863010029149",
        "orbital_period": "1730.885281270946",
        "perihelion_distance": "1.086638904185117",
        "perihelion_argument": "294.3770208924985",
        "aphelion_distance": "4.555926056858434",
        "perihelion_time": "2456244.243739612399",
        "mean_anomaly": "6.500866268430056",
        "mean_motion": ".2079860542436764",
        "equinox": "J2000",
        "orbit_class": {
            "orbit_class_type": "AMO",
            "orbit_class_description": "Near-Earth asteroid orbits similar to that of 1221 Amor",
            "orbit_class_range": "1.017 AU < q (perihelion) < 1.3 AU"
        }
    },
    "is_sentry_object": false
}